COSMOS 2251 DEB         
1 34637U 93036XJ  17345.90482810  .00000409  00000-0  12184-3 0  9998
2 34637  74.0533 171.9915 0067249 261.7872 213.5879 14.45064795462632
